CENTISPACE-1 OBJECT D   
1 68353U 26060D   26086.24461859  .00000028  00000+0  34955-4 0  9999
2 68353  54.9861  10.0008 0012592 310.5274  49.4628 14.75150737   687
CENTISPACE-1 OBJECT E   
1 68354U 26060E   26086.24445942  .00000023  00000+0  34249-4 0  9996
2 68354  54.9703  10.0013 0013073 309.7274  50.2572 14.75187980   682
CENTISPACE-1 OBJECT F   
1 68355U 26060F   26086.24436557  .00000024  00000+0  34309-4 0  9997
2 68355  54.9785   9.9975 0013536 311.2681  48.7152 14.75222194   684
CENTISPACE-1 OBJECT G   
1 68356U 26060G   26086.24410800  .00000030  00000+0  35239-4 0  9991
2 68356  54.9885   9.9988 0013692 310.7936  49.1875 14.75314561   687
CENTISPACE-1 OBJECT H   
1 68357U 26060H   26084.61780387  .00000019  00000+0  33492-4 0  9997
2 68357  54.9848  16.6351 0014470 304.4277  55.5354 14.75425125   445
CENTISPACE-1 OBJECT J   
1 68358U 26060J   26084.61779005  .00000017  00000+0  33263-4 0  9997
2 68358  54.9877  16.6351 0013871 306.1411  53.8304 14.75435012   443
CENTISPACE-1 OBJECT K   
1 68359U 26060K   26086.24353255  .00000024  00000+0  34269-4 0  9999
2 68359  54.9804   9.9961 0014497 310.3642  49.6092 14.75497767   682
SUPERVIEW NEO-2 OBJECT A
1 68377U 26062A   26086.31267993  .00001508  00000+0  72925-4 0  9991
2 68377  97.4350  94.7749 0008186 267.6475  92.3823 15.20113102   217
SUPERVIEW NEO-2 OBJECT B
1 68378U 26062B   26086.04924529  .00003139  00000+0  14873-3 0  9996
2 68378  97.4356  94.5245 0010396 272.3840  87.6205 15.20012563   173
CZ-2D R/B               
1 68379U 26062C   26086.30303523  .00006543  00000+0  21166-3 0  9996
2 68379  97.4991  94.5937 0053877  56.9096 303.7300 15.30983925   210
2026-064A               
1 68405U 26064A   26086.51515753  .00006261  00000+0  40249-3 0  9991
2 68405  97.4183 159.8860 0067432 285.8480  73.5321 15.06870678    66
